{"type": "FeatureCollection", "features": [ {"type": "Feature", "properties": {"norad_id": 29795, "name": "FENGYUN 1C DEB", "group": "fengyun-1c-debris", "lat": -25.288677632786754, "lon": 121.77850481689092, "alt_km": 885.7261694840063, "timestamp": "2025-12-14T05:42:18.731290+00:00", "meta": {"OBJECT_NAME": "FENGYUN 1C DEB", "OBJECT_ID": "1999-025CM", "EPOCH": "2025-12-13T07:43:37.222176", "MEAN_MOTION": 13.92910072, "ECCENTRICITY": 0.01110384, "INCLINATION": 98.8704, "RA_OF_ASC_NODE": 116.6698, "ARG_OF_PERICENTER": 274.5974, "MEAN_ANOMALY": 149.2332, "EPHEMERIS_TYPE": 0, "CLASSIFICATION_TYPE": "U", "NORAD_CAT_ID": 29795, "ELEMENT_SET_NO": 999, "REV_AT_EPOCH": 96073, "BSTAR": 0.00026789805, "MEAN_MOTION_DOT": 3.23e-06, "MEAN_MOTION_DDOT": 0}, "tle": {"line1": "1 29795U 99025CM  25347.32195859  .00000323  00000+0  26790-3 0  9994", "line2": "2 29795  98.8704 116.6698 0111038 274.5974 149.2332 13.92910072960732"}}, "geometry": {"type": "Point", "coordinates": [121.77850481689092, -25.288677632786754]}}, {"type": "Feature", "properties": {"norad_id": 29796, "name": "FENGYUN 1C DEB", "group": "fengyun-1c-debris", "lat": 60.532348093143, "lon": 24.059512519125356, "alt_km": 880.2779330106086, "timestamp": "2025-12-14T05:42:18.731300+00:00", "meta": {"OBJECT_NAME": "FENGYUN 1C DEB", "OBJECT_ID": "1999-025CN", "EPOCH": "2025-12-13T16:22:36.153696", "MEAN_MOTION": 14.12338577, "ECCENTRICITY": 0.00519035, "INCLINATION": 98.8649, "RA_OF_ASC_NODE": 39.5445, "ARG_OF_PERICENTER": 265.188, "MEAN_ANOMALY": 214.3437, "EPHEMERIS_TYPE": 0, "CLASSIFICATION_TYPE": "U", "NORAD_CAT_ID": 29796, "ELEMENT_SET_NO": 999, "REV_AT_EPOCH": 97074, "BSTAR": 0.00086719559, "MEAN_MOTION_DOT": 1.573e-05, "MEAN_MOTION_DDOT": 0}, "tle": {"line1": "1 29796U 99025CN  25347.68236289  .00001573  00000+0  86720-3 0  9994", "line2": "2 29796  98.8649  39.5445 0051903 265.1880 214.3437 14.12338577970749"}}, "geometry": {"type": "Point", "coordinates": [24.059512519125356, 60.532348093143]}}, {"type": "Feature", "properties": {"norad_id": 29798, "name": "FENGYUN 1C DEB", "group": "fengyun-1c-debris", "lat": -4.647290671710186, "lon": 52.9287437968, "alt_km": 893.5883723967036, "timestamp": "2025-12-14T05:42:18.731311+00:00", "meta": {"OBJECT_NAME": "FENGYUN 1C DEB", "OBJECT_ID": "1999-025CQ", "EPOCH": "2025-12-13T16:34:53.857632", "MEAN_MOTION": 13.9957563, "ECCENTRICITY": 0.01116433, "INCLINATION": 99.2953, "RA_OF_ASC_NODE": 51.6109, "ARG_OF_PERICENTER": 269.8779, "MEAN_ANOMALY": 210.6299, "EPHEMERIS_TYPE": 0, "CLASSIFICATION_TYPE": "U", "NORAD_CAT_ID": 29798, "ELEMENT_SET_NO": 999, "REV_AT_EPOCH": 95938, "BSTAR": 0.001959003, "MEAN_MOTION_DOT": 2.972e-05, "MEAN_MOTION_DDOT": 0}, "tle": {"line1": "1 29798U 99025CQ  25347.69090113  .00002972  00000+0  19590-2 0  9995", "line2": "2 29798  99.2953  51.6109 0111643 269.8779 210.6299 13.99575630959381"}}, "geometry": {"type": "Point", "coordinates": [52.9287437968, -4.647290671710186]}}, {"type": "Feature", "properties": {"norad_id": 29800, "name": "FENGYUN 1C DEB", "group": "fengyun-1c-debris", "lat": 24.817108656035582, "lon": -166.43580996816945, "alt_km": 860.8722958142198, "timestamp": "2025-12-14T05:42:18.731321+00:00", "meta": {"OBJECT_NAME": "FENGYUN 1C DEB", "OBJECT_ID": "1999-025CS", "EPOCH": "2025-12-12T23:54:54.544032", "MEAN_MOTION": 13.98566251, "ECCENTRICITY": 0.01337263, "INCLINATION": 98.286, "RA_OF_ASC_NODE": 8.5779, "ARG_OF_PERICENTER": 226.6056, "MEAN_ANOMALY": 163.5807, "EPHEMERIS_TYPE": 0, "CLASSIFICATION_TYPE": "U", "NORAD_CAT_ID": 29800, "ELEMENT_SET_NO": 999, "REV_AT_EPOCH": 95580, "BSTAR": 0.0027082943, "MEAN_MOTION_DOT": 4.155e-05, "MEAN_MOTION_DDOT": 0}, "tle": {"line1": "1 29800U 99025CS  25346.99646463  .00004155  00000+0  27083-2 0  9997", "line2": "2 29800  98.2860   8.5779 0133726 226.6056 163.5807 13.98566251955802"}}, "geometry": {"type": "Point", "coordinates": [-166.43580996816945, 24.817108656035582]}}, {"type": "Feature", "properties": {"norad_id": 29801, "name": "FENGYUN 1C DEB", "group": "fengyun-1c-debris", "lat": -74.8374777870614, "lon": -75.86839053339922, "alt_km": 709.971129892775, "timestamp": "2025-12-14T05:42:18.731331+00:00", "meta": {"OBJECT_NAME": "FENGYUN 1C DEB", "OBJECT_ID": "1999-025CT", "EPOCH": "2025-12-13T16:56:33.592704", "MEAN_MOTION": 14.35898526, "ECCENTRICITY": 0.01028149, "INCLINATION": 98.7948, "RA_OF_ASC_NODE": 248.7489, "ARG_OF_PERICENTER": 264.5094, "MEAN_ANOMALY": 150.236, "EPHEMERIS_TYPE": 0, "CLASSIFICATION_TYPE": "U", "NORAD_CAT_ID": 29801, "ELEMENT_SET_NO": 999, "REV_AT_EPOCH": 98955, "BSTAR": 0.00026863473, "MEAN_MOTION_DOT": 7.78e-06, "MEAN_MOTION_DDOT": 0}, "tle": {"line1": "1 29801U 99025CT  25347.70594436  .00000778  00000+0  26863-3 0  9993", "line2": "2 29801  98.7948 248.7489 0102814 264.5094 150.2360 14.35898526989559"}}, "geometry": {"type": "Point", "coordinates": [-75.86839053339922, -74.8374777870614]}}, {"type": "Feature", "properties": {"norad_id": 29802, "name": "FENGYUN 1C DEB", "group": "fengyun-1c-debris", "lat": 46.456672017048945, "lon": 88.23406177487283, "alt_km": 673.6408855167338, "timestamp": "2025-12-14T05:42:18.731341+00:00", "meta": {"OBJECT_NAME": "FENGYUN 1C DEB", "OBJECT_ID": "1999-025CU", "EPOCH": "2025-12-13T06:44:50.447616", "MEAN_MOTION": 14.62351363, "ECCENTRICITY": 0.00371797, "INCLINATION": 98.6189, "RA_OF_ASC_NODE": 96.4194, "ARG_OF_PERICENTER": 337.0716, "MEAN_ANOMALY": 76.7559, "EPHEMERIS_TYPE": 0, "CLASSIFICATION_TYPE": "U", "NORAD_CAT_ID": 29802, "ELEMENT_SET_NO": 999, "REV_AT_EPOCH": 98481, "BSTAR": 0.0048971, "MEAN_MOTION_DOT": 0.00025023, "MEAN_MOTION_DDOT": 0}, "tle": {"line1": "1 29802U 99025CU  25347.28113944  .00025023  00000+0  48971-2 0  9991", "line2": "2 29802  98.6189  96.4194 0037179 337.0716  76.7559 14.62351363984814"}}, "geometry": {"type": "Point", "coordinates": [88.23406177487283, 46.456672017048945]}}, {"type": "Feature", "properties": {"norad_id": 29804, "name": "FENGYUN 1C DEB", "group": "fengyun-1c-debris", "lat": 63.94896443715862, "lon": -22.085443659660303, "alt_km": 915.3548748043513, "timestamp": "2025-12-14T05:42:18.731351+00:00", "meta": {"OBJECT_NAME": "FENGYUN 1C DEB", "OBJECT_ID": "1999-025CW", "EPOCH": "2025-12-13T14:36:24.336864", "MEAN_MOTION": 14.04323137, "ECCENTRICITY": 0.00971345, "INCLINATION": 98.8055, "RA_OF_ASC_NODE": 355.7915, "ARG_OF_PERICENTER": 299.4027, "MEAN_ANOMALY": 186.4403, "EPHEMERIS_TYPE": 0, "CLASSIFICATION_TYPE": "U", "NORAD_CAT_ID": 29804, "ELEMENT_SET_NO": 999, "REV_AT_EPOCH": 96906, "BSTAR": 0.00013373025, "MEAN_MOTION_DOT": 1.78e-06, "MEAN_MOTION_DDOT": 0}, "tle": {"line1": "1 29804U 99025CW  25347.60861501  .00000178  00000+0  13373-3 0  9991", "line2": "2 29804  98.8055 355.7915 0097134 299.4027 186.4403 14.04323137969066"}}, "geometry": {"type": "Point", "coordinates": [-22.085443659660303, 63.94896443715862]}}, {"type": "Feature", "properties": {"norad_id": 29805, "name": "FENGYUN 1C DEB", "group": "fengyun-1c-debris", "lat": 53.97897021383453, "lon": 26.241043464211113, "alt_km": 1121.5438611105392, "timestamp": "2025-12-14T05:42:18.731361+00:00", "meta": {"OBJECT_NAME": "FENGYUN 1C DEB", "OBJECT_ID": "1999-025CX", "EPOCH": "2025-12-13T03:11:16.291680", "MEAN_MOTION": 13.72657313, "ECCENTRICITY": 0.01880148, "INCLINATION": 99.4551, "RA_OF_ASC_NODE": 38.3993, "ARG_OF_PERICENTER": 228.7418, "MEAN_ANOMALY": 129.7403, "EPHEMERIS_TYPE": 0, "CLASSIFICATION_TYPE": "U", "NORAD_CAT_ID": 29805, "ELEMENT_SET_NO": 999, "REV_AT_EPOCH": 94708, "BSTAR": 0.00023761644, "MEAN_MOTION_DOT": 2.02e-06, "MEAN_MOTION_DDOT": 0}, "tle": {"line1": "1 29805U 99025CX  25347.13282745  .00000202  00000+0  23762-3 0  9998", "line2": "2 29805  99.4551  38.3993 0188014 228.7418 129.7403 13.72657313947080"}}, "geometry": {"type": "Point", "coordinates": [26.241043464211113, 53.97897021383453]}}, {"type": "Feature", "properties": {"norad_id": 29806, "name": "FENGYUN 1C DEB", "group": "fengyun-1c-debris", "lat": 64.64281289139096, "lon": -157.13612835268935, "alt_km": 859.9420263033608, "timestamp": "2025-12-14T05:42:18.731372+00:00", "meta": {"OBJECT_NAME": "FENGYUN 1C DEB", "OBJECT_ID": "1999-025CY", "EPOCH": "2025-12-13T12:55:54.351264", "MEAN_MOTION": 14.1200889, "ECCENTRICITY": 0.00276358, "INCLINATION": 98.7128, "RA_OF_ASC_NODE": 3.3058, "ARG_OF_PERICENTER": 249.5652, "MEAN_ANOMALY": 273.8734, "EPHEMERIS_TYPE": 0, "CLASSIFICATION_TYPE": "U", "NORAD_CAT_ID": 29806, "ELEMENT_SET_NO": 999, "REV_AT_EPOCH": 97150, "BSTAR": 0.00075529061, "MEAN_MOTION_DOT": 1.345e-05, "MEAN_MOTION_DDOT": 0}, "tle": {"line1": "1 29806U 99025CY  25347.53882351  .00001345  00000+0  75529-3 0  9999", "line2": "2 29806  98.7128   3.3058 0027635 249.5652 273.8734 14.12008890971506"}}, "geometry": {"type": "Point", "coordinates": [-157.13612835268935, 64.64281289139096]}}, {"type": "Feature", "properties": {"norad_id": 29807, "name": "FENGYUN 1C DEB", "group": "fengyun-1c-debris", "lat": 20.19594557146523, "lon": 176.064830766464, "alt_km": 920.2509680540306, "timestamp": "2025-12-14T05:42:18.731382+00:00", "meta": {"OBJECT_NAME": "FENGYUN 1C DEB", "OBJECT_ID": "1999-025CZ", "EPOCH": "2025-12-13T11:54:02.554560", "MEAN_MOTION": 14.08659223, "ECCENTRICITY": 0.00794694, "INCLINATION": 98.7549, "RA_OF_ASC_NODE": 352.095, "ARG_OF_PERICENTER": 329.7945, "MEAN_ANOMALY": 29.8656, "EPHEMERIS_TYPE": 0, "CLASSIFICATION_TYPE": "U", "NORAD_CAT_ID": 29807, "ELEMENT_SET_NO": 999, "REV_AT_EPOCH": 97105, "BSTAR": 0.00038541367, "MEAN_MOTION_DOT": 6.4e-06, "MEAN_MOTION_DDOT": 0}, "tle": {"line1": "1 29807U 99025CZ  25347.49586290  .00000640  00000+0  38541-3 0  9998", "line2": "2 29807  98.7549 352.0950 0079469 329.7945  29.8656 14.08659223971056"}}, "geometry": {"type": "Point", "coordinates": [176.064830766464, 20.19594557146523]}}]}